{
  "type": "FeatureCollection",
  "features": [
    {
      "type": "Feature",
      "properties": {
        "norad_id": 30760,
        "name": "FENGYUN 1C DEB",
        "group": "fengyun-1c-debris",
        "lat": 51.502625199002495,
        "lon": -172.0707743425342,
        "alt_km": 908.9637451092658,
        "timestamp": "2025-12-26T08:37:54.858949+00:00",
        "meta_object_name": "FENGYUN 1C DEB",
        "meta_object_id": "1999-025ATW",
        "meta_epoch": "2025-12-24T23:33:19.940256",
        "meta_mean_motion": 14.05191303,
        "meta_eccentricity": 0.00523086,
        "meta_inclination": 98.8229,
        "meta_ra_of_asc_node": 355.3278,
        "meta_arg_of_pericenter": 308.9159,
        "meta_mean_anomaly": 50.7351,
        "meta_ephemeris_type": 0,
        "meta_classification_type": "U",
        "meta_norad_cat_id": 30760,
        "meta_element_set_no": 999,
        "meta_rev_at_epoch": 96394,
        "meta_bstar": 0.00026410391,
        "meta_mean_motion_dot": 3.88e-06,
        "meta_mean_motion_ddot": 0,
        "tle_line1": "1 30760U 99025ATW 25358.98148079  .00000388  00000+0  26410-3 0  9994",
        "tle_line2": "2 30760  98.8229 355.3278 0052308 308.9159  50.7351 14.05191303963941"
      },
      "geometry": {
        "type": "Point",
        "coordinates": [
          -172.0707743425342,
          51.502625199002495
        ]
      }
    },
    {
      "type": "Feature",
      "properties": {
        "norad_id": 30761,
        "name": "FENGYUN 1C DEB",
        "group": "fengyun-1c-debris",
        "lat": -61.447515703684,
        "lon": -56.14318551492261,
        "alt_km": 724.4166213004128,
        "timestamp": "2025-12-26T08:37:54.858960+00:00",
        "meta_object_name": "FENGYUN 1C DEB",
        "meta_object_id": "1999-025ATX",
        "meta_epoch": "2025-12-25T01:08:41.725824",
        "meta_mean_motion": 14.35844041,
        "meta_eccentricity": 0.00836992,
        "meta_inclination": 98.9666,
        "meta_ra_of_asc_node": 285.6254,
        "meta_arg_of_pericenter": 277.5738,
        "meta_mean_anomaly": 81.5945,
        "meta_ephemeris_type": 0,
        "meta_classification_type": "U",
        "meta_norad_cat_id": 30761,
        "meta_element_set_no": 999,
        "meta_rev_at_epoch": 97918,
        "meta_bstar": 0.0010317297,
        "meta_mean_motion_dot": 3.062e-05,
        "meta_mean_motion_ddot": 0,
        "tle_line1": "1 30761U 99025ATX 25359.04770516  .00003062  00000+0  10317-2 0  9990",
        "tle_line2": "2 30761  98.9666 285.6254 0083699 277.5738  81.5945 14.35844041979189"
      },
      "geometry": {
        "type": "Point",
        "coordinates": [
          -56.14318551492261,
          -61.447515703684
        ]
      }
    },
    {
      "type": "Feature",
      "properties": {
        "norad_id": 30762,
        "name": "FENGYUN 1C DEB",
        "group": "fengyun-1c-debris",
        "lat": 62.65681154895488,
        "lon": -26.88142409261752,
        "alt_km": 1033.7937149002646,
        "timestamp": "2025-12-26T08:37:54.858970+00:00",
        "meta_object_name": "FENGYUN 1C DEB",
        "meta_object_id": "1999-025ATY",
        "meta_epoch": "2025-12-24T17:41:52.326816",
        "meta_mean_motion": 13.98113979,
        "meta_eccentricity": 0.01973022,
        "meta_inclination": 98.8763,
        "meta_ra_of_asc_node": 349.1388,
        "meta_arg_of_pericenter": 261.87,
        "meta_mean_anomaly": 281.0282,
        "meta_ephemeris_type": 0,
        "meta_classification_type": "U",
        "meta_norad_cat_id": 30762,
        "meta_element_set_no": 999,
        "meta_rev_at_epoch": 95805,
        "meta_bstar": 0.00050242304,
        "meta_mean_motion_dot": 7.99e-06,
        "meta_mean_motion_ddot": 0,
        "tle_line1": "1 30762U 99025ATY 25358.73741119  .00000799  00000+0  50242-3 0  9999",
        "tle_line2": "2 30762  98.8763 349.1388 0197302 261.8700 281.0282 13.98113979958054"
      },
      "geometry": {
        "type": "Point",
        "coordinates": [
          -26.88142409261752,
          62.65681154895488
        ]
      }
    },
    {
      "type": "Feature",
      "properties": {
        "norad_id": 30763,
        "name": "FENGYUN 1C DEB",
        "group": "fengyun-1c-debris",
        "lat": 22.18482949809214,
        "lon": -103.6047147596511,
        "alt_km": 682.1817348692748,
        "timestamp": "2025-12-26T08:37:54.858980+00:00",
        "meta_object_name": "FENGYUN 1C DEB",
        "meta_object_id": "1999-025ATZ",
        "meta_epoch": "2025-12-25T04:06:52.966368",
        "meta_mean_motion": 14.61572611,
        "meta_eccentricity": 0.0024532,
        "meta_inclination": 98.8915,
        "meta_ra_of_asc_node": 71.4586,
        "meta_arg_of_pericenter": 232.8829,
        "meta_mean_anomaly": 156.3422,
        "meta_ephemeris_type": 0,
        "meta_classification_type": "U",
        "meta_norad_cat_id": 30763,
        "meta_element_set_no": 999,
        "meta_rev_at_epoch": 97326,
        "meta_bstar": 0.0045287,
        "meta_mean_motion_dot": 0.00022607,
        "meta_mean_motion_ddot": 0,
        "tle_line1": "1 30763U 99025ATZ 25359.17144637  .00022607  00000+0  45287-2 0  9995",
        "tle_line2": "2 30763  98.8915  71.4586 0024532 232.8829 156.3422 14.61572611973266"
      },
      "geometry": {
        "type": "Point",
        "coordinates": [
          -103.6047147596511,
          22.18482949809214
        ]
      }
    },
    {
      "type": "Feature",
      "properties": {
        "norad_id": 30764,
        "name": "FENGYUN 1C DEB",
        "group": "fengyun-1c-debris",
        "lat": 55.30969732818846,
        "lon": 166.36960615431843,
        "alt_km": 418.4246628810906,
        "timestamp": "2025-12-26T08:37:54.858990+00:00",
        "meta_object_name": "FENGYUN 1C DEB",
        "meta_object_id": "1999-025AUA",
        "meta_epoch": "2025-12-25T21:06:30.642912",
        "meta_mean_motion": 15.29880324,
        "meta_eccentricity": 0.00764553,
        "meta_inclination": 98.7803,
        "meta_ra_of_asc_node": 332.8999,
        "meta_arg_of_pericenter": 125.5454,
        "meta_mean_anomaly": 235.2942,
        "meta_ephemeris_type": 0,
        "meta_classification_type": "U",
        "meta_norad_cat_id": 30764,
        "meta_element_set_no": 999,
        "meta_rev_at_epoch": 1423,
        "meta_bstar": 0.001035438,
        "meta_mean_motion_dot": 0.00032767,
        "meta_mean_motion_ddot": 0,
        "tle_line1": "1 30764U 99025AUA 25359.87952133  .00032767  00000+0  10354-2 0  9996",
        "tle_line2": "2 30764  98.7803 332.8999 0076455 125.5454 235.2942 15.29880324 14232"
      },
      "geometry": {
        "type": "Point",
        "coordinates": [
          166.36960615431843,
          55.30969732818846
        ]
      }
    },
    {
      "type": "Feature",
      "properties": {
        "norad_id": 30765,
        "name": "FENGYUN 1C DEB",
        "group": "fengyun-1c-debris",
        "lat": -9.23013374003515,
        "lon": 47.585281280199055,
        "alt_km": 896.8530523574482,
        "timestamp": "2025-12-26T08:37:54.859000+00:00",
        "meta_object_name": "FENGYUN 1C DEB",
        "meta_object_id": "1999-025AUB",
        "meta_epoch": "2025-12-25T23:03:57.154752",
        "meta_mean_motion": 14.14750972,
        "meta_eccentricity": 0.00687716,
        "meta_inclination": 98.7869,
        "meta_ra_of_asc_node": 45.7527,
        "meta_arg_of_pericenter": 171.8053,
        "meta_mean_anomaly": 310.0751,
        "meta_ephemeris_type": 0,
        "meta_classification_type": "U",
        "meta_norad_cat_id": 30765,
        "meta_element_set_no": 999,
        "meta_rev_at_epoch": 97009,
        "meta_bstar": 0.00074520117,
        "meta_mean_motion_dot": 1.425e-05,
        "meta_mean_motion_ddot": 0,
        "tle_line1": "1 30765U 99025AUB 25359.96107818  .00001425  00000+0  74520-3 0  9992",
        "tle_line2": "2 30765  98.7869  45.7527 0068771 171.8053 310.0751 14.14750972970096"
      },
      "geometry": {
        "type": "Point",
        "coordinates": [
          47.585281280199055,
          -9.23013374003515
        ]
      }
    },
    {
      "type": "Feature",
      "properties": {
        "norad_id": 30766,
        "name": "FENGYUN 1C DEB",
        "group": "fengyun-1c-debris",
        "lat": -26.720189095572092,
        "lon": 4.657276784927255,
        "alt_km": 838.7793811781903,
        "timestamp": "2025-12-26T08:37:54.859010+00:00",
        "meta_object_name": "FENGYUN 1C DEB",
        "meta_object_id": "1999-025AUC",
        "meta_epoch": "2025-12-23T22:58:26.298048",
        "meta_mean_motion": 14.09556111,
        "meta_eccentricity": 0.0083444,
        "meta_inclination": 98.6731,
        "meta_ra_of_asc_node": 357.9362,
        "meta_arg_of_pericenter": 42.9494,
        "meta_mean_anomaly": 346.9265,
        "meta_ephemeris_type": 0,
        "meta_classification_type": "U",
        "meta_norad_cat_id": 30766,
        "meta_element_set_no": 999,
        "meta_rev_at_epoch": 62955,
        "meta_bstar": 0.00066973,
        "meta_mean_motion_dot": 1.168e-05,
        "meta_mean_motion_ddot": 0,
        "tle_line1": "1 30766U 99025AUC 25357.95724882  .00001168  00000+0  66973-3 0  9993",
        "tle_line2": "2 30766  98.6731 357.9362 0083444  42.9494 346.9265 14.09556111629553"
      },
      "geometry": {
        "type": "Point",
        "coordinates": [
          4.657276784927255,
          -26.720189095572092
        ]
      }
    }
  ]
}